NORAD_CAT_ID,OBJECT_NAME,OBJECT_TYPE,EPOCH,MEAN_MOTION,ECCENTRICITY,INCLINATION,RA_OF_ASC_NODE,ARG_OF_PERICENTER,MEAN_ANOMALY,BSTAR,MEAN_MOTION_DOT,MEAN_MOTION_DDOT,TLE_LINE0,TLE_LINE1,TLE_LINE2,SEMIMAJOR_AXIS,PERIOD,APOGEE,PERIGEE,DECAYED
55407.0,STARLINK-5019,PAYLOAD,2024-03-09 03:18:57,14.98335175,0.0002833,69.9992,106.5301,269.0321,91.0513,-5.1135e-05,-7.03e-06,0.0,0 STARLINK-5019,1 55407U 23014S   24069.13817128 -.00000703  00000-0 -51135-4 0  9994,2 55407  69.9992 106.5301 0002833 269.0321  91.0513 14.98335175 61688,6950.177,96.107,574.011,570.073,0.0
55407.0,STARLINK-5019,PAYLOAD,2024-03-09 11:19:38,14.98334288,0.0002831,69.9992,105.6891,267.1424,92.9411,-4.8114e-05,-6.67e-06,0.0,0 STARLINK-5019,1 55407U 23014S   24069.47197057 -.00000667  00000-0 -48114-4 0  9995,2 55407  69.9992 105.6891 0002831 267.1424  92.9411 14.98334288 62674,6950.18,96.107,574.012,570.077,0.0
55407.0,STARLINK-5019,PAYLOAD,2024-03-09 19:20:18,14.9833302,0.0002823,69.9993,104.8473,267.9141,92.1695,-2.6231e-05,-4.06e-06,0.0,0 STARLINK-5019,1 55407U 23014S   24069.80576977 -.00000406  00000-0 -26231-4 0  9991,2 55407  69.9993 104.8473 0002823 267.9141  92.1695 14.98333020 62722,6950.184,96.107,574.011,570.087,0.0
55407.0,STARLINK-5019,PAYLOAD,2024-03-10 03:20:58,14.98333867,0.0002855,69.999,104.0055,267.9739,92.1093,5.5999e-06,-2.6e-07,0.0,0 STARLINK-5019,1 55407U 23014S   24070.13956741 -.00000026  00000-0  55999-5 0  9991,2 55407  69.9990 104.0055 0002855 267.9739  92.1093 14.98333867 61837,6950.181,96.107,574.03,570.062,0.0
55407.0,STARLINK-5019,PAYLOAD,2024-03-10 11:21:38,14.98332661,0.0002866,69.999,103.1637,268.7482,91.3349,-8.1434e-06,-1.9e-06,0.0,0 STARLINK-5019,1 55407U 23014S   24070.47336781 -.00000190  00000-0 -81434-5 0  9990,2 55407  69.9990 103.1637 0002866 268.7482  91.3349 14.98332661 62825,6950.185,96.107,574.042,570.058,0.0
55407.0,STARLINK-5019,PAYLOAD,2024-03-11 04:59:07,14.98328174,0.0002896,69.9989,101.3119,268.9513,91.1315,-4.8063e-06,-1.5e-06,0.0,0 STARLINK-5019,1 55407U 23014S   24071.20772976 -.00000150  00000-0 -48063-5 0  9999,2 55407  69.9989 101.3119 0002896 268.9513  91.1315 14.98328174 61990,6950.199,96.107,574.076,570.051,0.0
55407.0,STARLINK-5019,PAYLOAD,2024-03-11 11:23:40,14.98328014,0.0002917,69.999,100.6386,268.5214,91.5611,-1.9723e-05,-3.28e-06,0.0,0 STARLINK-5019,1 55407U 23014S   24071.47477044 -.00000328  00000-0 -19723-4 0  9993,2 55407  69.9990 100.6386 0002917 268.5214  91.5611 14.98328014 62973,6950.199,96.107,574.091,570.037,0.0
55407.0,STARLINK-5019,PAYLOAD,2024-03-12 05:01:08,14.98328826,0.0003041,69.9985,98.7864,269.5396,90.5415,1.09e-05,3.7e-07,0.0,0 STARLINK-5019,1 55407U 23014S   24072.20912893  .00000037  00000-0  10900-4 0  9994,2 55407  69.9985  98.7864 0003041 269.5396  90.5415 14.98328826 62147,6950.197,96.107,574.175,569.948,0.0
55407.0,STARLINK-5019,PAYLOAD,2024-03-12 19:26:21,14.98329774,0.0003088,69.9986,97.2714,269.9593,90.1212,2.5386e-05,2.1e-06,0.0,0 STARLINK-5019,1 55407U 23014S   24072.80996779  .00000210  00000-0  25386-4 0  9992,2 55407  69.9986  97.2714 0003088 269.9593  90.1212 14.98329774 63178,6950.194,96.107,574.205,569.912,0.0
55407.0,STARLINK-5019,PAYLOAD,2024-03-13 11:27:41,14.98332457,0.0003123,69.9987,95.5883,270.4042,89.6759,5.0149e-05,5.05e-06,0.0,0 STARLINK-5019,1 55407U 23014S   24073.47756490  .00000505  00000-0  50149-4 0  9992,2 55407  69.9987  95.5883 0003123 270.4042  89.6759 14.98332457 62331,6950.185,96.107,574.221,569.88,0.0
55407.0,STARLINK-5019,PAYLOAD,2024-03-14 06:41:18,14.98329445,0.0003104,69.9987,93.5682,270.5749,89.5055,1.3345e-05,6.6e-07,0.0,0 STARLINK-5019,1 55407U 23014S   24074.27868726  .00000066  00000-0  13345-4 0  9996,2 55407  69.9987  93.5682 0003104 270.5749  89.5055 14.98329445 63398,6950.195,96.107,574.217,569.902,0.0
55407.0,STARLINK-5019,PAYLOAD,2024-03-14 11:29:42,14.98332994,0.0003097,69.9987,93.0632,270.7478,89.3326,3.6145e-05,3.38e-06,0.0,0 STARLINK-5019,1 55407U 23014S   24074.47896401  .00000338  00000-0  36145-4 0  9994,2 55407  69.9987  93.0632 0003097 270.7478  89.3326 14.98332994 62481,6950.184,96.107,574.201,569.896,0.0
55407.0,STARLINK-5019,PAYLOAD,2024-03-15 09:55:35,14.98330379,0.0002989,69.9988,90.7067,270.5373,89.5443,-2.0525e-05,-3.38e-06,0.0,0 STARLINK-5019,1 55407U 23014S   24075.41360682 -.00000338  00000-0 -20525-4 0  9993,2 55407  69.9988  90.7067 0002989 270.5373  89.5443 14.98330379 63566,6950.192,96.107,574.134,569.979,0.0
55407.0,STARLINK-5019,PAYLOAD,2024-03-16 05:09:11,14.98333018,0.0002749,69.9998,88.6868,263.8028,96.2818,8.1316e-05,8.77e-06,0.0,0 STARLINK-5019,1 55407U 23014S   24076.21472168  .00000877  00000-0  81316-4 0  9996,2 55407  69.9998  88.6868 0002749 263.8028  96.2818 14.98333018 62741,6950.184,96.107,573.959,570.138,0.0
55407.0,STARLINK-5019,PAYLOAD,2024-03-16 09:57:35,14.98346397,0.000255,69.9993,88.1829,259.8987,100.1884,0.00018717,2.142e-05,0.0,0 STARLINK-5019,1 55407U 23014S   24076.41498917  .00002142  00000-0  18717-3 0  9999,2 55407  69.9993  88.1829 0002550 259.8987 100.1884 14.98346397 62772,6950.142,96.106,573.779,570.235,0.0
55407.0,STARLINK-5019,PAYLOAD,2024-03-17 05:11:13,14.9832334,0.0002954,69.9995,86.1633,261.6936,98.3888,-2.3423e-05,-3.72e-06,0.0,0 STARLINK-5019,1 55407U 23014S   24077.21612676 -.00000372  00000-0 -23423-4 0  9994,2 55407  69.9995  86.1633 0002954 261.6936  98.3888 14.98323340 62896,6950.213,96.107,574.132,570.025,0.0
55407.0,STARLINK-5019,PAYLOAD,2024-03-17 09:59:38,14.98315813,0.0002517,70.0002,85.6583,250.2158,109.873,-9.7216e-05,-1.252e-05,0.0,0 STARLINK-5019,1 55407U 23014S   24077.41641457 -.00001252  00000-0 -97216-4 0  9994,2 55407  70.0002  85.6583 0002517 250.2158 109.8730 14.98315813 63869,6950.237,96.108,573.851,570.352,0.0
55407.0,STARLINK-5019,PAYLOAD,2024-03-18 05:13:14,14.98332229,0.0003055,69.9989,83.6365,265.0889,94.9921,-0.00012794,-1.619e-05,0.0,0 STARLINK-5019,1 55407U 23014S   24078.21752700 -.00001619  00000-0 -12794-3 0  9991,2 55407  69.9989  83.6365 0003055 265.0889  94.9921 14.98332229 63045,6950.186,96.107,574.174,569.928,0.0
55407.0,STARLINK-5019,PAYLOAD,2024-03-18 10:01:38,14.98334037,0.0003015,69.9988,83.1312,264.0208,96.0608,-0.00011411,-1.454e-05,0.0,0 STARLINK-5019,1 55407U 23014S   24078.41780498 -.00001454  00000-0 -11411-3 0  9990,2 55407  69.9988  83.1312 0003015 264.0208  96.0608 14.98334037 64013,6950.18,96.107,574.141,569.95,0.0
55407.0,STARLINK-5019,PAYLOAD,2024-03-19 10:03:38,14.98329404,0.0003073,69.999,80.6063,263.528,96.5529,0.00013319,1.497e-05,0.0,0 STARLINK-5019,1 55407U 23014S   24079.41920130  .00001497  00000-0  13319-3 0  9994,2 55407  69.9990  80.6063 0003073 263.5280  96.5529 14.98329404 63220,6950.195,96.107,574.196,569.924,0.0
55407.0,STARLINK-5019,PAYLOAD,2024-03-20 10:05:40,14.98331522,0.0002972,69.9994,78.0814,263.3135,96.7685,6.5492e-05,6.89e-06,0.0,0 STARLINK-5019,1 55407U 23014S   24080.42060214  .00000689  00000-0  65492-4 0  9997,2 55407  69.9994  78.0814 0002972 263.3135  96.7685 14.98331522 63378,6950.188,96.107,574.119,569.988,0.0
55407.0,STARLINK-5019,PAYLOAD,2024-03-21 10:07:41,14.98332098,0.0002852,69.9997,75.5567,264.6647,95.4187,-5.4408e-06,-1.58e-06,0.0,0 STARLINK-5019,1 55407U 23014S   24081.42200291 -.00000158  00000-0 -54408-5 0  9998,2 55407  69.9997  75.5567 0002852 264.6647  95.4187 14.98332098 63526,6950.186,96.107,574.034,570.069,0.0
55407.0,STARLINK-5019,PAYLOAD,2024-03-22 10:09:41,14.98333418,0.0002788,69.9998,73.0319,261.7488,98.3355,3.7222e-05,3.51e-06,0.0,0 STARLINK-5019,1 55407U 23014S   24082.42339949  .00000351  00000-0  37222-4 0  9999,2 55407  69.9998  73.0319 0002788 261.7488  98.3355 14.98333418 63676,6950.182,96.107,573.985,570.11,0.0
55407.0,STARLINK-5019,PAYLOAD,2024-03-23 03:47:11,14.98322643,0.0002781,69.9997,71.1789,262.4457,97.6386,-7.7301e-06,-1.85e-06,0.0,0 STARLINK-5019,1 55407U 23014S   24083.15776826 -.00000185  00000-0 -77301-5 0  9999,2 55407  69.9997  71.1789 0002781 262.4457  97.6386 14.98322643 63788,6950.216,96.107,574.013,570.148,0.0
55407.0,STARLINK-5019,PAYLOAD,2024-03-23 08:35:35,14.98316538,0.0002925,70.0,70.6742,264.1128,95.9698,8.8681e-05,9.65e-06,0.0,0 STARLINK-5019,1 55407U 23014S   24083.35805069  .00000965  00000-0  88681-4 0  9999,2 55407  70.0000  70.6742 0002925 264.1128  95.9698 14.98316538 64754,6950.235,96.108,574.132,570.067,0.0
55407.0,STARLINK-5019,PAYLOAD,2024-03-24 05:25:19,14.9833717,0.0003075,69.9996,68.4872,264.1027,95.9781,6.3672e-05,6.67e-06,0.0,0 STARLINK-5019,1 55407U 23014S   24084.22591716  .00000667  00000-0  63672-4 0  9999,2 55407  69.9996  68.4872 0003075 264.1027  95.9781 14.98337170 63947,6950.171,96.107,574.173,569.899,0.0
55407.0,STARLINK-5019,PAYLOAD,2024-03-24 08:37:34,14.98340437,0.0002868,69.9999,68.149,265.1234,94.9597,0.00013606,1.531e-05,0.0,0 STARLINK-5019,1 55407U 23014S   24084.35943269  .00001531  00000-0  13606-3 0  9999,2 55407  69.9999  68.1490 0002868 265.1234  94.9597 14.98340437 64904,6950.161,96.106,574.019,570.032,0.0
55407.0,STARLINK-5019,PAYLOAD,2024-03-24 23:02:48,14.98325025,0.0002315,70.002,66.6323,241.5909,118.5017,0.0001428,1.611e-05,0.0,0 STARLINK-5019,1 55407U 23014S   24084.96028215  .00001611  00000-0  14280-3 0  9999,2 55407  70.0020  66.6323 0002315 241.5909 118.5017 14.98325025 64999,6950.208,96.107,573.682,570.464,0.0
55407.0,STARLINK-5019,PAYLOAD,2024-03-25 05:27:20,14.98327959,0.000286,69.9997,65.9611,268.7689,91.3143,1.9856e-05,1.44e-06,0.0,0 STARLINK-5019,1 55407U 23014S   24085.22732451  .00000144  00000-0  19856-4 0  9998,2 55407  69.9997  65.9611 0002860 268.7689  91.3143 14.98327959 64099,6950.199,96.107,574.052,570.076,0.0
55407.0,STARLINK-5019,PAYLOAD,2024-03-25 23:04:50,14.98324431,0.0002937,70.0002,64.11,271.7441,88.3381,-0.00010002,-1.286e-05,0.0,0 STARLINK-5019,1 55407U 23014S   24085.96169248 -.00001286  00000-0 -10002-3 0  9990,2 55407  70.0002  64.1100 0002937 271.7441  88.3381 14.98324431 65147,6950.21,96.107,574.116,570.034,0.0
